CCSDS_OMM_VERS = 2.0
CREATION_DATE  = 
ORIGINATOR     = 

OBJECT_NAME    = CZ-4B R/B
OBJECT_ID      = 2025-289B
CENTER_NAME    = EARTH
REF_FRAME      = TEME
TIME_SYSTEM    = UTC
MEAN_ELEMENT_THEORY = SGP/SGP4

EPOCH          = 2025-12-28T03:26:54.710592
MEAN_MOTION    = 15.71086065
ECCENTRICITY   = .0137091
INCLINATION    = 97.5225
RA_OF_ASC_NODE = 68.6329
ARG_OF_PERICENTER = 304.4254
MEAN_ANOMALY   = 54.4111

EPHEMERIS_TYPE = 0
CLASSIFICATION_TYPE = U
NORAD_CAT_ID   = 66989
ELEMENT_SET_NO = 999
REV_AT_EPOCH   = 298
BSTAR          = .63231E-3
MEAN_MOTION_DOT = .139545E-2
MEAN_MOTION_DDOT = .79925E-5

CCSDS_OMM_VERS = 2.0
CREATION_DATE  = 
ORIGINATOR     = 

OBJECT_NAME    = TJS-22
OBJECT_ID      = 2025-290A
CENTER_NAME    = EARTH
REF_FRAME      = TEME
TIME_SYSTEM    = UTC
MEAN_ELEMENT_THEORY = SGP/SGP4

EPOCH          = 2025-12-27T08:12:11.987424
MEAN_MOTION    = 1.00271890
ECCENTRICITY   = .0003363
INCLINATION    = 1.9517
RA_OF_ASC_NODE = 285.0458
ARG_OF_PERICENTER = 343.4928
MEAN_ANOMALY   = 17.0361

EPHEMERIS_TYPE = 0
CLASSIFICATION_TYPE = U
NORAD_CAT_ID   = 66990
ELEMENT_SET_NO = 999
REV_AT_EPOCH   = 30
BSTAR          = 0
MEAN_MOTION_DOT = .17E-6
MEAN_MOTION_DDOT = 0

CCSDS_OMM_VERS = 2.0
CREATION_DATE  = 
ORIGINATOR     = 

OBJECT_NAME    = CZ-3B R/B
OBJECT_ID      = 2025-290B
CENTER_NAME    = EARTH
REF_FRAME      = TEME
TIME_SYSTEM    = UTC
MEAN_ELEMENT_THEORY = SGP/SGP4

EPOCH          = 2025-12-15T17:23:33.043200
MEAN_MOTION    = 2.38388611
ECCENTRICITY   = .7240884
INCLINATION    = 28.4636
RA_OF_ASC_NODE = 300.4666
ARG_OF_PERICENTER = 182.7002
MEAN_ANOMALY   = 168.6250

EPHEMERIS_TYPE = 0
CLASSIFICATION_TYPE = U
NORAD_CAT_ID   = 66991
ELEMENT_SET_NO = 999
REV_AT_EPOCH   = 16
BSTAR          = .75879E-3
MEAN_MOTION_DOT = .57911E-3
MEAN_MOTION_DDOT = -.20514E-6

CCSDS_OMM_VERS = 2.0
CREATION_DATE  = 
ORIGINATOR     = 

OBJECT_NAME    = 2025-292A
OBJECT_ID      = 2025-292A
CENTER_NAME    = EARTH
REF_FRAME      = TEME
TIME_SYSTEM    = UTC
MEAN_ELEMENT_THEORY = SGP/SGP4

EPOCH          = 2025-12-28T04:04:45.427008
MEAN_MOTION    = 15.04618596
ECCENTRICITY   = .0014876
INCLINATION    = 97.6493
RA_OF_ASC_NODE = 74.5696
ARG_OF_PERICENTER = 217.5095
MEAN_ANOMALY   = 142.5094

EPHEMERIS_TYPE = 0
CLASSIFICATION_TYPE = U
NORAD_CAT_ID   = 66993
ELEMENT_SET_NO = 999
REV_AT_EPOCH   = 271
BSTAR          = .43484E-3
MEAN_MOTION_DOT = .6062E-4
MEAN_MOTION_DDOT = 0

CCSDS_OMM_VERS = 2.0
CREATION_DATE  = 
ORIGINATOR     = 

OBJECT_NAME    = 2025-292B
OBJECT_ID      = 2025-292B
CENTER_NAME    = EARTH
REF_FRAME      = TEME
TIME_SYSTEM    = UTC
MEAN_ELEMENT_THEORY = SGP/SGP4

EPOCH          = 2025-12-28T04:03:58.233600
MEAN_MOTION    = 15.04671202
ECCENTRICITY   = .001466
INCLINATION    = 97.6502
RA_OF_ASC_NODE = 74.5722
ARG_OF_PERICENTER = 217.8322
MEAN_ANOMALY   = 142.1875

EPHEMERIS_TYPE = 0
CLASSIFICATION_TYPE = U
NORAD_CAT_ID   = 66994
ELEMENT_SET_NO = 999
REV_AT_EPOCH   = 271
BSTAR          = .4783E-3
MEAN_MOTION_DOT = .6683E-4
MEAN_MOTION_DDOT = 0

CCSDS_OMM_VERS = 2.0
CREATION_DATE  = 
ORIGINATOR     = 

OBJECT_NAME    = 2025-292C
OBJECT_ID      = 2025-292C
CENTER_NAME    = EARTH
REF_FRAME      = TEME
TIME_SYSTEM    = UTC
MEAN_ELEMENT_THEORY = SGP/SGP4

EPOCH          = 2025-12-28T04:03:59.738688
MEAN_MOTION    = 15.04573057
ECCENTRICITY   = .0014817
INCLINATION    = 97.6492
RA_OF_ASC_NODE = 74.5701
ARG_OF_PERICENTER = 215.9425
MEAN_ANOMALY   = 144.0805

EPHEMERIS_TYPE = 0
CLASSIFICATION_TYPE = U
NORAD_CAT_ID   = 66995
ELEMENT_SET_NO = 999
REV_AT_EPOCH   = 271
BSTAR          = .56606E-3
MEAN_MOTION_DOT = .7902E-4
MEAN_MOTION_DDOT = 0

CCSDS_OMM_VERS = 2.0
CREATION_DATE  = 
ORIGINATOR     = 

OBJECT_NAME    = 2025-292D
OBJECT_ID      = 2025-292D
CENTER_NAME    = EARTH
REF_FRAME      = TEME
TIME_SYSTEM    = UTC
MEAN_ELEMENT_THEORY = SGP/SGP4

EPOCH          = 2025-12-28T04:03:10.309248
MEAN_MOTION    = 15.04672851
ECCENTRICITY   = .0014073
INCLINATION    = 97.6488
RA_OF_ASC_NODE = 74.5698
ARG_OF_PERICENTER = 219.9924
MEAN_ANOMALY   = 140.0266

EPHEMERIS_TYPE = 0
CLASSIFICATION_TYPE = U
NORAD_CAT_ID   = 66996
ELEMENT_SET_NO = 999
REV_AT_EPOCH   = 271
BSTAR          = .39943E-3
MEAN_MOTION_DOT = .5569E-4
MEAN_MOTION_DDOT = 0

CCSDS_OMM_VERS = 2.0
CREATION_DATE  = 
ORIGINATOR     = 

OBJECT_NAME    = 2025-292E
OBJECT_ID      = 2025-292E
CENTER_NAME    = EARTH
REF_FRAME      = TEME
TIME_SYSTEM    = UTC
MEAN_ELEMENT_THEORY = SGP/SGP4

EPOCH          = 2025-12-28T04:01:36.492672
MEAN_MOTION    = 15.04803379
ECCENTRICITY   = .0014436
INCLINATION    = 97.6510
RA_OF_ASC_NODE = 74.5757
ARG_OF_PERICENTER = 221.5380
MEAN_ANOMALY   = 138.4750

EPHEMERIS_TYPE = 0
CLASSIFICATION_TYPE = U
NORAD_CAT_ID   = 66997
ELEMENT_SET_NO = 999
REV_AT_EPOCH   = 270
BSTAR          = .4562E-3
MEAN_MOTION_DOT = .6393E-4
MEAN_MOTION_DDOT = 0

CCSDS_OMM_VERS = 2.0
CREATION_DATE  = 
ORIGINATOR     = 

OBJECT_NAME    = 2025-292F
OBJECT_ID      = 2025-292F
CENTER_NAME    = EARTH
REF_FRAME      = TEME
TIME_SYSTEM    = UTC
MEAN_ELEMENT_THEORY = SGP/SGP4

EPOCH          = 2025-12-28T00:47:14.574048
MEAN_MOTION    = 15.04993323
ECCENTRICITY   = .0015555
INCLINATION    = 97.6530
RA_OF_ASC_NODE = 74.4507
ARG_OF_PERICENTER = 222.8843
MEAN_ANOMALY   = 137.1171

EPHEMERIS_TYPE = 0
CLASSIFICATION_TYPE = U
NORAD_CAT_ID   = 66998
ELEMENT_SET_NO = 999
REV_AT_EPOCH   = 269
BSTAR          = .56687E-3
MEAN_MOTION_DOT = .8005E-4
MEAN_MOTION_DDOT = 0

CCSDS_OMM_VERS = 2.0
CREATION_DATE  = 
ORIGINATOR     = 

OBJECT_NAME    = 2025-292G
OBJECT_ID      = 2025-292G
CENTER_NAME    = EARTH
REF_FRAME      = TEME
TIME_SYSTEM    = UTC
MEAN_ELEMENT_THEORY = SGP/SGP4

EPOCH          = 2025-12-28T00:46:09.336000
MEAN_MOTION    = 15.05057947
ECCENTRICITY   = .0015062
INCLINATION    = 97.6540
RA_OF_ASC_NODE = 74.4537
ARG_OF_PERICENTER = 224.7938
MEAN_ANOMALY   = 135.2073

EPHEMERIS_TYPE = 0
CLASSIFICATION_TYPE = U
NORAD_CAT_ID   = 66999
ELEMENT_SET_NO = 999
REV_AT_EPOCH   = 269
BSTAR          = .57773E-3
MEAN_MOTION_DOT = .8173E-4
MEAN_MOTION_DDOT = 0

CCSDS_OMM_VERS = 2.0
CREATION_DATE  = 
ORIGINATOR     = 

OBJECT_NAME    = 2025-292H
OBJECT_ID      = 2025-292H
CENTER_NAME    = EARTH
REF_FRAME      = TEME
TIME_SYSTEM    = UTC
MEAN_ELEMENT_THEORY = SGP/SGP4

EPOCH          = 2025-12-28T00:45:53.491104
MEAN_MOTION    = 15.05098010
ECCENTRICITY   = .0014997
INCLINATION    = 97.6553
RA_OF_ASC_NODE = 74.4568
ARG_OF_PERICENTER = 224.6675
MEAN_ANOMALY   = 135.3344

EPHEMERIS_TYPE = 0
CLASSIFICATION_TYPE = U
NORAD_CAT_ID   = 67000
ELEMENT_SET_NO = 999
REV_AT_EPOCH   = 256
BSTAR          = .70101E-3
MEAN_MOTION_DOT = .9943E-4
MEAN_MOTION_DDOT = 0

CCSDS_OMM_VERS = 2.0
CREATION_DATE  = 
ORIGINATOR     = 

OBJECT_NAME    = 2025-292J
OBJECT_ID      = 2025-292J
CENTER_NAME    = EARTH
REF_FRAME      = TEME
TIME_SYSTEM    = UTC
MEAN_ELEMENT_THEORY = SGP/SGP4

EPOCH          = 2025-12-28T04:07:41.350368
MEAN_MOTION    = 15.04474761
ECCENTRICITY   = .0015293
INCLINATION    = 97.6524
RA_OF_ASC_NODE = 74.5743
ARG_OF_PERICENTER = 213.9251
MEAN_ANOMALY   = 146.0998

EPHEMERIS_TYPE = 0
CLASSIFICATION_TYPE = U
NORAD_CAT_ID   = 67001
ELEMENT_SET_NO = 999
REV_AT_EPOCH   = 271
BSTAR          = .56003E-3
MEAN_MOTION_DOT = .7797E-4
MEAN_MOTION_DDOT = 0

