CZ-4B R/B               
1 66989U 25289B   25362.14368878  .00139545  79925-5  63231-3 0  9999
2 66989  97.5225  68.6329 0137091 304.4254  54.4111 15.71086065  2981
TJS-22                  
1 66990U 25290A   25361.34180541  .00000017  00000+0  00000+0 0  9997
2 66990   1.9517 285.0458 0003363 343.4928  17.0361  1.00271890   304
CZ-3B R/B               
1 66991U 25290B   25349.72468800  .00057911 -20514-6  75879-3 0  9998
2 66991  28.4636 300.4666 7240884 182.7002 168.6250  2.38388611   165
2025-292A               
1 66993U 25292A   25362.16997022  .00006062  00000+0  43484-3 0  9996
2 66993  97.6493  74.5696 0014876 217.5095 142.5094 15.04618596  2715
2025-292B               
1 66994U 25292B   25362.16942400  .00006683  00000+0  47830-3 0  9995
2 66994  97.6502  74.5722 0014660 217.8322 142.1875 15.04671202  2710
2025-292C               
1 66995U 25292C   25362.16944142  .00007902  00000+0  56606-3 0  9997
2 66995  97.6492  74.5701 0014817 215.9425 144.0805 15.04573057  2716
2025-292D               
1 66996U 25292D   25362.16886932  .00005569  00000+0  39943-3 0  9992
2 66996  97.6488  74.5698 0014073 219.9924 140.0266 15.04672851  2718
2025-292E               
1 66997U 25292E   25362.16778348  .00006393  00000+0  45620-3 0  9999
2 66997  97.6510  74.5757 0014436 221.5380 138.4750 15.04803379  2708
2025-292F               
1 66998U 25292F   25362.03280757  .00008005  00000+0  56687-3 0  9995
2 66998  97.6530  74.4507 0015555 222.8843 137.1171 15.04993323  2694
2025-292G               
1 66999U 25292G   25362.03205250  .00008173  00000+0  57773-3 0  9994
2 66999  97.6540  74.4537 0015062 224.7938 135.2073 15.05057947  2692
2025-292H               
1 67000U 25292H   25362.03186911  .00009943  00000+0  70101-3 0  9996
2 67000  97.6553  74.4568 0014997 224.6675 135.3344 15.05098010  2561
2025-292J               
1 67001U 25292J   25362.17200637  .00007797  00000+0  56003-3 0  9994
2 67001  97.6524  74.5743 0015293 213.9251 146.0998 15.04474761  2718
